GSAT0101 (PRN E11)      
1 37846U 11060A   21092.72511439 -.00000081  00000-0  00000-0 0  9992
2 37846  56.8005  33.3506 0004356 347.8309  12.1420  1.70475097 58706
GSAT0102 (PRN E12)      
1 37847U 11060B   21092.34962075 -.00000080  00000-0  00000-0 0  9996
2 37847  56.8013  33.3603 0005530 327.0061 208.7465  1.70475295 58706
GSAT0103 (PRN E19)      
1 38857U 12055A   21092.76671936  .00000009  00000-0  00000-0 0  9992
2 38857  55.0270 153.8185 0004437 262.8558  97.1668  1.70473624 52599
GSAT0104 (PRN E20)      
1 38858U 12055B   21092.70118362  .00000010  00000-0  00000-0 0  9998
2 38858  55.0274 153.8199 0003213 266.8714  93.1653  1.70473539 52605
GSAT0201 (PRN E18)      
1 40128U 14050A   21091.22852224 -.00000097  00000-0  00000-0 0  9992
2 40128  50.5016 349.9006 1650941 108.7391 269.8297  1.85518918 43017
GSAT0202 (PRN E14)      
1 40129U 14050B   21092.03017086 -.00000100  00000-0  00000-0 0  9997
2 40129  50.5337 348.9150 1648319 109.5756 268.9042  1.85519582 45190
GSAT0203 (PRN E26)      
1 40544U 15017A   21091.91988110 -.00000078  00000-0  00000-0 0  9997
2 40544  56.5943  33.4664 0004004 282.8322  77.1061  1.70474364 36773
GSAT0204 (PRN E22)      
1 40545U 15017B   21092.28725567 -.00000080  00000-0  00000-0 0  9997
2 40545  56.6009  33.4734 0001450 274.6276  85.3391  1.70474838 37443
GSAT0205 (PRN E24)      
1 40889U 15045A   21091.94218197  .00000012  00000-0  00000-0 0  9991
2 40889  55.9327 274.1477 0005470  26.9598 333.0430  1.70475104 34584
GSAT0206 (PRN E30)      
1 40890U 15045B   21090.98851311  .00000012  00000-0  00000-0 0  9997
2 40890  55.9326 274.1704 0003637  25.5671 334.4245  1.70475183 34595
GSAT0209 (PRN E09)      
1 41174U 15079A   21092.33572050  .00000013  00000-0  00000-0 0  9992
2 41174  55.0419 153.5304 0004874 303.4466  56.5825  1.70473667 32358
GSAT0208 (PRN E08)      
1 41175U 15079B   21091.38225107  .00000021  00000-0  00000-0 0  9994
2 41175  55.0413 153.5558 0004049 302.7424  57.2999  1.70473752 32753
GSAT0211 (PRN E02)      
1 41549U 16030A   21091.50336798  .00000013  00000-0  00000-0 0  9991
2 41549  56.0763 274.0424 0003579 353.3220   6.6470  1.70474815 30235
GSAT0210 (PRN E01)      
1 41550U 16030B   21092.38279659  .00000013  00000-0  00000-0 0  9992
2 41550  56.0751 274.0198 0001864 328.4768  31.4872  1.70474866 30246
GSAT0207 (PRN E07)      
1 41859U 16069A   21091.45524075  .00000019  00000-0  00000-0 0  9994
2 41859  54.6997 153.8455 0004930 290.7129  69.3149  1.70473642 26965
GSAT0212 (PRN E03)      
1 41860U 16069B   21092.48182927  .00000011  00000-0  00000-0 0  9998
2 41860  54.6988 153.8153 0003613 310.1969  49.8461  1.70473623 27238
GSAT0213 (PRN E04)      
1 41861U 16069C   21091.67436203  .00000018  00000-0  00000-0 0  9995
2 41861  54.7007 153.8422 0004486 270.5824  89.4455  1.70473639 27093
GSAT0214 (PRN E05)      
1 41862U 16069D   21090.64824112  .00000026  00000-0  00000-0 0  9991
2 41862  54.6989 153.8659 0003592 274.3954  85.6486  1.70473710 27190
GSAT0215 (PRN E21)      
1 43055U 17079A   21089.96567501  .00000014  00000-0  00000-0 0  9995
2 43055  56.0521 273.9240 0001311 340.8178  19.1519  1.70474074 20521
GSAT0216 (PRN E25)      
1 43056U 17079B   21092.60456809  .00000013  00000-0  00000-0 0  9998
2 43056  56.0507 273.8509 0002664 302.2837  57.6658  1.70474225 20584
GSAT0217 (PRN E27)      
1 43057U 17079C   21091.06492904  .00000013  00000-0  00000-0 0  9994
2 43057  56.0505 273.8937 0002792 324.9854  34.9694  1.70474098 20542
GSAT0218 (PRN E31)      
1 43058U 17079D   21092.45809987  .00000013  00000-0  00000-0 0  9992
2 43058  56.0489 273.8526 0002956 293.0599  66.8840  1.70474154 20597
GSAT0221 (PRN E15)      
1 43564U 18060A   21092.35652969 -.00000080  00000-0  00000-0 0  9995
2 43564  56.9801  33.1568 0005077 294.2385  65.6920  1.70475408 16743
GSAT0222 (PRN E33)      
1 43565U 18060B   21091.98978614 -.00000078  00000-0  00000-0 0  9999
2 43565  56.9820  33.1666 0005007 302.1548  57.7799  1.70475407 16786
GSAT0219 (PRN E36)      
1 43566U 18060C   21092.21036904 -.00000079  00000-0  00000-0 0  9995
2 43566  56.9826  33.1624 0004711 304.3501  55.5888  1.70475421 16760
GSAT0220 (PRN E13)      
1 43567U 18060D   21091.84357439 -.00000078  00000-0  00000-0 0  9992
2 43567  56.9825  33.1725 0004700 299.4415  60.4947  1.70475125 16748
